{
"type": "FeatureCollection",
"name": "ahmedabad_boundary",
"crs": { "type": "name", "properties": { "name": "urn:ogc:def:crs:OGC:1.3:CRS84" } },
"features": [
{ "type": "Feature", "properties": { "name": "Ahmedabad Metropolitan AOI", "size_km": 45.0 }, "geometry": { "type": "Polygon", "coordinates": [ [ [ 72.802745809501204, 22.821637644035309 ], [ 72.79614995162845, 23.227840262866156 ], [ 72.356711903002974, 23.221061903595285 ], [ 72.364619538574033, 22.814991020098816 ], [ 72.802745809501204, 22.821637644035309 ] ] ] } }
]
}
